OBJECT_NAME,OBJECT_ID,EPOCH,MEAN_MOTION,ECCENTRICITY,INCLINATION,RA_OF_ASC_NODE,ARG_OF_PERICENTER,MEAN_ANOMALY,EPHEMERIS_TYPE,CLASSIFICATION_TYPE,NORAD_CAT_ID,ELEMENT_SET_NO,REV_AT_EPOCH,BSTAR,MEAN_MOTION_DOT,MEAN_MOTION_DDOT
GPS BIIR-8  (PRN 16),2003-005A,2026-07-20T06:19:26.040576,2.00558827,.01483955,54.8784,213.6545,53.1892,129.0086,0,U,27663,999,17197,0,.62E-6,0
GPS BIIR-11 (PRN 19),2004-009A,2026-07-20T07:19:45.465312,2.00553616,.01173381,54.8023,274.3476,174.5558,190.3314,0,U,28190,999,16361,0,-.51E-6,0
GPS BIIR-13 (PRN 02),2004-045A,2026-07-19T23:57:46.088640,2.00557373,.01702634,55.1149,323.5747,317.1768,251.2314,0,U,28474,999,15908,0,-.107E-5,0
GPS BIIRM-1 (PRN 17),2005-038A,2026-07-20T08:20:34.096704,2.00563444,.01283035,54.8514,271.8375,296.4798,128.7830,0,U,28874,999,15250,0,-.46E-6,0
INMARSAT 4-F2 (SOUTHPAN/PRN 122),2005-044A,2026-07-20T12:05:55.080672,1.00271126,.0002918,5.1390,43.6810,62.6721,156.8915,0,U,28899,999,7585,0,-.265E-5,0
GPS BIIRM-2 (PRN 31),2006-042A,2026-07-20T12:51:18.007776,2.00567979,.01073303,54.7131,150.0149,55.3112,44.7429,0,U,29486,999,14506,0,.34E-6,0
GPS BIIRM-3 (PRN 12),2006-052A,2026-07-19T19:50:24.173952,2.00559979,.00847461,54.9319,212.7123,91.0071,269.9911,0,U,29601,999,14406,0,.58E-6,0
GPS BIIRM-4 (PRN 15),2007-047A,2026-07-20T03:10:50.032128,2.00553782,.01679521,54.1195,78.7075,88.1073,273.8731,0,U,32260,999,13747,0,-.64E-6,0
COSMOS 2433 (720),2007-052A,2026-07-17T21:16:46.400160,2.13104035,.00036303,65.5578,314.9006,203.9160,156.0841,0,U,32275,999,14571,0,-.7E-6,0
COSMOS 2432 (719),2007-052B,2026-07-20T08:46:03.228960,2.13103006,.00073709,65.5720,314.9455,321.0837,84.2320,0,U,32276,999,14579,0,-.84E-6,0
GPS BIIRM-5 (PRN 29),2007-062A,2026-07-20T10:55:23.759040,2.00561991,.00360667,55.0052,272.8137,167.9290,193.1150,0,U,32384,999,13618,0,-.47E-6,0
COSMOS 2434 (721),2007-065A,2026-07-18T11:53:46.942080,2.13101158,.00012335,64.3202,190.8597,326.9616,29.9549,0,U,32393,999,14443,0,.65E-6,0
COSMOS 2436 (723),2007-065C,2026-07-20T09:15:29.772000,2.13100001,.00173232,64.3289,190.8685,353.6543,145.4326,0,U,32395,999,14443,0,.84E-6,0
GPS BIIRM-6 (PRN 07),2008-012A,2026-07-20T00:58:38.093952,2.00573308,.0211725,54.5004,148.6123,248.1970,109.5164,0,U,32711,999,13441,0,.34E-6,0
COSMOS 2457 (733),2009-070B,2026-07-20T05:40:29.774208,2.13100985,.00043031,65.0165,69.6883,122.0917,55.7210,0,U,36112,999,12913,0,-.51E-6,0
COSMOS 2460 (732),2010-007C,2026-07-19T13:58:51.260736,2.13101428,.00018585,65.3996,313.3704,149.6273,248.4791,0,U,36402,999,12742,0,-.79E-6,0
GPS BIIF-1  (PRN 25),2010-022A,2026-07-20T08:40:31.255104,2.00564074,.01268565,54.2682,207.2257,66.1603,292.7704,0,U,36585,999,11825,0,.68E-6,0
BEIDOU-2 IGSO-1 (C06),2010-036A,2026-07-19T14:08:33.404064,1.00262639,.00586524,54.3073,162.6674,225.1805,228.5775,0,U,36828,999,5842,0,-.97E-6,0
BEIDOU-2 IGSO-2 (C07),2010-068A,2026-07-19T20:07:19.149312,1.00272665,.00570323,47.4862,271.4234,214.1385,222.1771,0,U,37256,999,5712,0,-.205E-5,0
BEIDOU-2 IGSO-3 (C08),2011-013A,2026-07-20T11:54:48.647232,1.00259464,.00357915,62.4540,39.8354,183.4623,359.8458,0,U,37384,999,5599,0,-.175E-5,0
BEIDOU-2 IGSO-4 (C09),2011-038A,2026-07-20T08:27:39.989088,1.00278544,.01601422,54.6051,165.3776,231.4902,122.5778,0,U,37763,999,5497,0,-.23E-6,0
GSAT0101 (GALILEO-PFM),2011-060A,2026-07-17T22:29:50.024256,1.70475655,.0002114,56.9832,340.9281,62.8592,297.1517,0,U,37846,999,9164,0,-.105E-5,0
GSAT0102 (GALILEO-FM2),2011-060B,2026-07-19T15:17:29.144832,1.70475938,.00019369,56.9834,340.8826,5.0706,3.7701,0,U,37847,999,9168,0,-.107E-5,0
COSMOS 2476 (744),2011-064A,2026-07-18T04:11:02.956128,2.13103618,.00220678,65.2874,71.8256,235.6441,301.3919,0,U,37867,999,11442,0,-.32E-6,0
COSMOS 2477 (745),2011-064B,2026-07-19T09:01:21.552960,2.13102797,.00190628,65.2948,71.8648,236.5942,322.5208,0,U,37868,999,11444,0,-.43E-6,0
COSMOS 2475 (743),2011-064C,2026-07-19T09:54:59.368032,2.13101651,.00245691,65.3016,71.8854,250.6224,292.0479,0,U,37869,999,11445,0,-.44E-6,0
